SL-16 R/B               
1 22566U 93016B   26036.12701158  .00000002  00000+0  25744-4 0  9999
2 22566  71.0077 283.5763 0010074 359.3944   0.7165 14.15303956697567
COSMOS 2242             
1 22626U 93024A   26036.13944619  .00003202  00000+0  27951-3 0  9993
2 22626  82.5196 297.8480 0017824  57.4931 302.8010 14.96410319775528
SL-16 R/B               
1 22803U 93059B   26035.86832699  .00000291  00000+0  16771-3 0  9994
2 22803  70.9893  80.3436 0019480 261.3434  98.5483 14.17225601674881
ARIANE 40 R/B           
1 22830U 93061H   26036.15738119  .00000271  00000+0  11527-3 0  9994
2 22830  98.4985 105.6759 0011037  26.5461 333.6286 14.32843322689443
COSMOS 2278             
1 23087U 94023A   26036.27679525 -.00000205  00000+0 -82580-4 0  9993
2 23087  71.0505 242.9114 0006471  74.4818 285.7018 14.14364580640224
SL-16 R/B               
1 23088U 94023B   26036.26728460 -.00000087  00000+0 -20087-4 0  9998
2 23088  70.9999 138.9793 0004431 315.5247  44.5520 14.15003666641503
SL-16 R/B               
1 23343U 94074B   26036.31822067  .00000682  00000+0  98090-4 0  9990
2 23343  97.7151  68.4409 0005934 339.2077  31.4472 14.79368711682464
SL-16 R/B               
1 23405U 94077B   26036.04956519 -.00000078  00000+0 -15244-4 0  9993
2 23405  70.9814  61.1584 0004460 240.2213 119.8466 14.15556609611610
ARIANE 40+ R/B          
1 23561U 95021B   26036.14757699  .00000387  00000+0  13751-3 0  9996
2 23561  98.4564 108.0603 0005888 232.9541 156.9829 14.39747833614569
SL-16 R/B               
1 23705U 95058B   26035.98428745  .00000267  00000+0  16100-3 0  9992
2 23705  71.0188 248.9194 0012507 179.1726 180.9420 14.15490010563226
SL-16 R/B               
1 24298U 96051B   26036.30483839  .00000086  00000+0  73168-4 0  9993
2 24298  70.7566 243.7867 0017775 193.1471 166.9188 14.12406447517070
ORBVIEW 2 (SEASTAR)     
1 24883U 97037A   26035.93642519  .00000384  00000+0  14965-3 0  9998
2 24883  98.8510 199.3911 0002797 139.0562 221.0833 14.35468629503771
