CCSDS_OMM_VERS = 2.0
CREATION_DATE  = 
ORIGINATOR     = 

OBJECT_NAME    = SL-16 R/B
OBJECT_ID      = 1993-016B
CENTER_NAME    = EARTH
REF_FRAME      = TEME
TIME_SYSTEM    = UTC
MEAN_ELEMENT_THEORY = SGP/SGP4

EPOCH          = 2026-02-05T03:02:53.800512
MEAN_MOTION    = 14.15303956
ECCENTRICITY   = .00100748
INCLINATION    = 71.0077
RA_OF_ASC_NODE = 283.5763
ARG_OF_PERICENTER = 359.3944
MEAN_ANOMALY   = 0.7165

EPHEMERIS_TYPE = 0
CLASSIFICATION_TYPE = U
NORAD_CAT_ID   = 22566
ELEMENT_SET_NO = 999
REV_AT_EPOCH   = 69756
BSTAR          = .25743623E-4
MEAN_MOTION_DOT = .2E-7
MEAN_MOTION_DDOT = 0

CCSDS_OMM_VERS = 2.0
CREATION_DATE  = 
ORIGINATOR     = 

OBJECT_NAME    = COSMOS 2242
OBJECT_ID      = 1993-024A
CENTER_NAME    = EARTH
REF_FRAME      = TEME
TIME_SYSTEM    = UTC
MEAN_ELEMENT_THEORY = SGP/SGP4

EPOCH          = 2026-02-05T03:20:48.150816
MEAN_MOTION    = 14.96410319
ECCENTRICITY   = .0017824
INCLINATION    = 82.5196
RA_OF_ASC_NODE = 297.8480
ARG_OF_PERICENTER = 57.4931
MEAN_ANOMALY   = 302.8010

EPHEMERIS_TYPE = 0
CLASSIFICATION_TYPE = U
NORAD_CAT_ID   = 22626
ELEMENT_SET_NO = 999
REV_AT_EPOCH   = 77552
BSTAR          = .27951408E-3
MEAN_MOTION_DOT = .3202E-4
MEAN_MOTION_DDOT = 0

CCSDS_OMM_VERS = 2.0
CREATION_DATE  = 
ORIGINATOR     = 

OBJECT_NAME    = SL-16 R/B
OBJECT_ID      = 1993-059B
CENTER_NAME    = EARTH
REF_FRAME      = TEME
TIME_SYSTEM    = UTC
MEAN_ELEMENT_THEORY = SGP/SGP4

EPOCH          = 2026-02-04T20:50:23.451936
MEAN_MOTION    = 14.17225601
ECCENTRICITY   = .00194808
INCLINATION    = 70.9893
RA_OF_ASC_NODE = 80.3436
ARG_OF_PERICENTER = 261.3434
MEAN_ANOMALY   = 98.5483

EPHEMERIS_TYPE = 0
CLASSIFICATION_TYPE = U
NORAD_CAT_ID   = 22803
ELEMENT_SET_NO = 999
REV_AT_EPOCH   = 67488
BSTAR          = .16770792E-3
MEAN_MOTION_DOT = .291E-5
MEAN_MOTION_DDOT = 0

CCSDS_OMM_VERS = 2.0
CREATION_DATE  = 
ORIGINATOR     = 

OBJECT_NAME    = ARIANE 40 R/B
OBJECT_ID      = 1993-061H
CENTER_NAME    = EARTH
REF_FRAME      = TEME
TIME_SYSTEM    = UTC
MEAN_ELEMENT_THEORY = SGP/SGP4

EPOCH          = 2026-02-05T03:46:37.734816
MEAN_MOTION    = 14.32843322
ECCENTRICITY   = .0011037
INCLINATION    = 98.4985
RA_OF_ASC_NODE = 105.6759
ARG_OF_PERICENTER = 26.5461
MEAN_ANOMALY   = 333.6286

EPHEMERIS_TYPE = 0
CLASSIFICATION_TYPE = U
NORAD_CAT_ID   = 22830
ELEMENT_SET_NO = 999
REV_AT_EPOCH   = 68944
BSTAR          = .11526945E-3
MEAN_MOTION_DOT = .271E-5
MEAN_MOTION_DDOT = 0

CCSDS_OMM_VERS = 2.0
CREATION_DATE  = 
ORIGINATOR     = 

OBJECT_NAME    = COSMOS 2278
OBJECT_ID      = 1994-023A
CENTER_NAME    = EARTH
REF_FRAME      = TEME
TIME_SYSTEM    = UTC
MEAN_ELEMENT_THEORY = SGP/SGP4

EPOCH          = 2026-02-05T06:38:35.109600
MEAN_MOTION    = 14.14364580
ECCENTRICITY   = .00064712
INCLINATION    = 71.0505
RA_OF_ASC_NODE = 242.9114
ARG_OF_PERICENTER = 74.4818
MEAN_ANOMALY   = 285.7018

EPHEMERIS_TYPE = 0
CLASSIFICATION_TYPE = U
NORAD_CAT_ID   = 23087
ELEMENT_SET_NO = 999
REV_AT_EPOCH   = 64022
BSTAR          = -.82580093E-4
MEAN_MOTION_DOT = -.205E-5
MEAN_MOTION_DDOT = 0

CCSDS_OMM_VERS = 2.0
CREATION_DATE  = 
ORIGINATOR     = 

OBJECT_NAME    = SL-16 R/B
OBJECT_ID      = 1994-023B
CENTER_NAME    = EARTH
REF_FRAME      = TEME
TIME_SYSTEM    = UTC
MEAN_ELEMENT_THEORY = SGP/SGP4

EPOCH          = 2026-02-05T06:24:53.389440
MEAN_MOTION    = 14.15003666
ECCENTRICITY   = .00044313
INCLINATION    = 70.9999
RA_OF_ASC_NODE = 138.9793
ARG_OF_PERICENTER = 315.5247
MEAN_ANOMALY   = 44.5520

EPHEMERIS_TYPE = 0
CLASSIFICATION_TYPE = U
NORAD_CAT_ID   = 23088
ELEMENT_SET_NO = 999
REV_AT_EPOCH   = 64150
BSTAR          = -.20086998E-4
MEAN_MOTION_DOT = -.87E-6
MEAN_MOTION_DDOT = 0

CCSDS_OMM_VERS = 2.0
CREATION_DATE  = 
ORIGINATOR     = 

OBJECT_NAME    = SL-16 R/B
OBJECT_ID      = 1994-074B
CENTER_NAME    = EARTH
REF_FRAME      = TEME
TIME_SYSTEM    = UTC
MEAN_ELEMENT_THEORY = SGP/SGP4

EPOCH          = 2026-02-05T07:38:14.265888
MEAN_MOTION    = 14.79368711
ECCENTRICITY   = .00059342
INCLINATION    = 97.7151
RA_OF_ASC_NODE = 68.4409
ARG_OF_PERICENTER = 339.2077
MEAN_ANOMALY   = 31.4472

EPHEMERIS_TYPE = 0
CLASSIFICATION_TYPE = U
NORAD_CAT_ID   = 23343
ELEMENT_SET_NO = 999
REV_AT_EPOCH   = 68246
BSTAR          = .98090013E-4
MEAN_MOTION_DOT = .682E-5
MEAN_MOTION_DDOT = 0

CCSDS_OMM_VERS = 2.0
CREATION_DATE  = 
ORIGINATOR     = 

OBJECT_NAME    = SL-16 R/B
OBJECT_ID      = 1994-077B
CENTER_NAME    = EARTH
REF_FRAME      = TEME
TIME_SYSTEM    = UTC
MEAN_ELEMENT_THEORY = SGP/SGP4

EPOCH          = 2026-02-05T01:11:22.432416
MEAN_MOTION    = 14.15556609
ECCENTRICITY   = .00044609
INCLINATION    = 70.9814
RA_OF_ASC_NODE = 61.1584
ARG_OF_PERICENTER = 240.2213
MEAN_ANOMALY   = 119.8466

EPHEMERIS_TYPE = 0
CLASSIFICATION_TYPE = U
NORAD_CAT_ID   = 23405
ELEMENT_SET_NO = 999
REV_AT_EPOCH   = 61161
BSTAR          = -.15244079E-4
MEAN_MOTION_DOT = -.78E-6
MEAN_MOTION_DDOT = 0

CCSDS_OMM_VERS = 2.0
CREATION_DATE  = 
ORIGINATOR     = 

OBJECT_NAME    = ARIANE 40+ R/B
OBJECT_ID      = 1995-021B
CENTER_NAME    = EARTH
REF_FRAME      = TEME
TIME_SYSTEM    = UTC
MEAN_ELEMENT_THEORY = SGP/SGP4

EPOCH          = 2026-02-05T03:32:30.651936
MEAN_MOTION    = 14.39747833
ECCENTRICITY   = .00058881
INCLINATION    = 98.4564
RA_OF_ASC_NODE = 108.0603
ARG_OF_PERICENTER = 232.9541
MEAN_ANOMALY   = 156.9829

EPHEMERIS_TYPE = 0
CLASSIFICATION_TYPE = U
NORAD_CAT_ID   = 23561
ELEMENT_SET_NO = 999
REV_AT_EPOCH   = 61456
BSTAR          = .13751303E-3
MEAN_MOTION_DOT = .387E-5
MEAN_MOTION_DDOT = 0

CCSDS_OMM_VERS = 2.0
CREATION_DATE  = 
ORIGINATOR     = 

OBJECT_NAME    = SL-16 R/B
OBJECT_ID      = 1995-058B
CENTER_NAME    = EARTH
REF_FRAME      = TEME
TIME_SYSTEM    = UTC
MEAN_ELEMENT_THEORY = SGP/SGP4

EPOCH          = 2026-02-04T23:37:22.435680
MEAN_MOTION    = 14.15490010
ECCENTRICITY   = .00125072
INCLINATION    = 71.0188
RA_OF_ASC_NODE = 248.9194
ARG_OF_PERICENTER = 179.1726
MEAN_ANOMALY   = 180.9420

EPHEMERIS_TYPE = 0
CLASSIFICATION_TYPE = U
NORAD_CAT_ID   = 23705
ELEMENT_SET_NO = 999
REV_AT_EPOCH   = 56322
BSTAR          = .16100227E-3
MEAN_MOTION_DOT = .267E-5
MEAN_MOTION_DDOT = 0

CCSDS_OMM_VERS = 2.0
CREATION_DATE  = 
ORIGINATOR     = 

OBJECT_NAME    = SL-16 R/B
OBJECT_ID      = 1996-051B
CENTER_NAME    = EARTH
REF_FRAME      = TEME
TIME_SYSTEM    = UTC
MEAN_ELEMENT_THEORY = SGP/SGP4

EPOCH          = 2026-02-05T07:18:58.036896
MEAN_MOTION    = 14.12406447
ECCENTRICITY   = .00177752
INCLINATION    = 70.7566
RA_OF_ASC_NODE = 243.7867
ARG_OF_PERICENTER = 193.1471
MEAN_ANOMALY   = 166.9188

EPHEMERIS_TYPE = 0
CLASSIFICATION_TYPE = U
NORAD_CAT_ID   = 24298
ELEMENT_SET_NO = 999
REV_AT_EPOCH   = 51707
BSTAR          = .73168428E-4
MEAN_MOTION_DOT = .86E-6
MEAN_MOTION_DDOT = 0

CCSDS_OMM_VERS = 2.0
CREATION_DATE  = 
ORIGINATOR     = 

OBJECT_NAME    = ORBVIEW 2 (SEASTAR)
OBJECT_ID      = 1997-037A
CENTER_NAME    = EARTH
REF_FRAME      = TEME
TIME_SYSTEM    = UTC
MEAN_ELEMENT_THEORY = SGP/SGP4

EPOCH          = 2026-02-04T22:28:27.136416
MEAN_MOTION    = 14.35468629
ECCENTRICITY   = .00027974
INCLINATION    = 98.8510
RA_OF_ASC_NODE = 199.3911
ARG_OF_PERICENTER = 139.0562
MEAN_ANOMALY   = 221.0833

EPHEMERIS_TYPE = 0
CLASSIFICATION_TYPE = U
NORAD_CAT_ID   = 24883
ELEMENT_SET_NO = 999
REV_AT_EPOCH   = 50377
BSTAR          = .14964984E-3
MEAN_MOTION_DOT = .384E-5
MEAN_MOTION_DDOT = 0

